{"type": "FeatureCollection", "features": [ {"type": "Feature", "properties": {"norad_id": 30467, "name": "FENGYUN 1C DEB", "group": "fengyun-1c-debris", "lat": 8.491280592824394, "lon": 8.041552459900625, "alt_km": 868.4108722132214, "timestamp": "2025-12-07T16:44:04.187846+00:00", "meta": {"OBJECT_NAME": "FENGYUN 1C DEB", "OBJECT_ID": "1999-025AGE", "EPOCH": "2025-12-06T14:08:45.777408", "MEAN_MOTION": 14.17243893, "ECCENTRICITY": 0.00653578, "INCLINATION": 98.6792, "RA_OF_ASC_NODE": 8.2667, "ARG_OF_PERICENTER": 144.9101, "MEAN_ANOMALY": 335.162, "EPHEMERIS_TYPE": 0, "CLASSIFICATION_TYPE": "U", "NORAD_CAT_ID": 30467, "ELEMENT_SET_NO": 999, "REV_AT_EPOCH": 97090, "BSTAR": 0.0015834296, "MEAN_MOTION_DOT": 3.223e-05, "MEAN_MOTION_DDOT": 0}, "tle": {"line1": "1 30467U 99025AGE 25340.58941872  .00003223  00000+0  15834-2 0  9995", "line2": "2 30467  98.6792   8.2667 0065357 144.9101 335.1620 14.17243893970905"}}, "geometry": {"type": "Point", "coordinates": [8.041552459900625, 8.491280592824394]}}, {"type": "Feature", "properties": {"norad_id": 30468, "name": "FENGYUN 1C DEB", "group": "fengyun-1c-debris", "lat": -74.0490702302294, "lon": -150.19782976632206, "alt_km": 878.709209972395, "timestamp": "2025-12-07T16:44:04.187856+00:00", "meta": {"OBJECT_NAME": "FENGYUN 1C DEB", "OBJECT_ID": "1999-025AGF", "EPOCH": "2025-12-05T18:27:26.136000", "MEAN_MOTION": 14.20643156, "ECCENTRICITY": 0.00724324, "INCLINATION": 98.9229, "RA_OF_ASC_NODE": 61.2006, "ARG_OF_PERICENTER": 60.2732, "MEAN_ANOMALY": 60.6646, "EPHEMERIS_TYPE": 0, "CLASSIFICATION_TYPE": "U", "NORAD_CAT_ID": 30468, "ELEMENT_SET_NO": 999, "REV_AT_EPOCH": 96711, "BSTAR": 0.0027629598, "MEAN_MOTION_DOT": 6.068e-05, "MEAN_MOTION_DDOT": 0}, "tle": {"line1": "1 30468U 99025AGF 25339.76905250  .00006068  00000+0  27630-2 0  9991", "line2": "2 30468  98.9229  61.2006 0072432  60.2732  60.6646 14.20643156967119"}}, "geometry": {"type": "Point", "coordinates": [-150.19782976632206, -74.0490702302294]}}, {"type": "Feature", "properties": {"norad_id": 30469, "name": "FENGYUN 1C DEB", "group": "fengyun-1c-debris", "lat": -34.94154000077735, "lon": -161.2245827286668, "alt_km": 1000.9013143801794, "timestamp": "2025-12-07T16:44:04.187866+00:00", "meta": {"OBJECT_NAME": "FENGYUN 1C DEB", "OBJECT_ID": "1999-025AGG", "EPOCH": "2025-12-05T13:27:33.744672", "MEAN_MOTION": 13.96486083, "ECCENTRICITY": 0.0158557, "INCLINATION": 98.4786, "RA_OF_ASC_NODE": 190.8235, "ARG_OF_PERICENTER": 189.8871, "MEAN_ANOMALY": 198.85, "EPHEMERIS_TYPE": 0, "CLASSIFICATION_TYPE": "U", "NORAD_CAT_ID": 30469, "ELEMENT_SET_NO": 999, "REV_AT_EPOCH": 95606, "BSTAR": 0.0011842678, "MEAN_MOTION_DOT": 1.78e-05, "MEAN_MOTION_DDOT": 0}, "tle": {"line1": "1 30469U 99025AGG 25339.56080723  .00001780  00000+0  11843-2 0  9994", "line2": "2 30469  98.4786 190.8235 0158557 189.8871 198.8500 13.96486083956062"}}, "geometry": {"type": "Point", "coordinates": [-161.2245827286668, -34.94154000077735]}}, {"type": "Feature", "properties": {"norad_id": 30471, "name": "FENGYUN 1C DEB", "group": "fengyun-1c-debris", "lat": 71.29854525253003, "lon": -82.66178899612885, "alt_km": 896.2656642765587, "timestamp": "2025-12-07T16:44:04.187876+00:00", "meta": {"OBJECT_NAME": "FENGYUN 1C DEB", "OBJECT_ID": "1999-025AGJ", "EPOCH": "2025-12-06T04:42:31.413888", "MEAN_MOTION": 14.13558957, "ECCENTRICITY": 0.00819615, "INCLINATION": 99.0545, "RA_OF_ASC_NODE": 67.7155, "ARG_OF_PERICENTER": 271.8795, "MEAN_ANOMALY": 120.3285, "EPHEMERIS_TYPE": 0, "CLASSIFICATION_TYPE": "U", "NORAD_CAT_ID": 30471, "ELEMENT_SET_NO": 999, "REV_AT_EPOCH": 96350, "BSTAR": 0.0029868442, "MEAN_MOTION_DOT": 5.769e-05, "MEAN_MOTION_DDOT": 0}, "tle": {"line1": "1 30471U 99025AGJ 25340.19619692  .00005769  00000+0  29868-2 0  9998", "line2": "2 30471  99.0545  67.7155 0081961 271.8795 120.3285 14.13558957963506"}}, "geometry": {"type": "Point", "coordinates": [-82.66178899612885, 71.29854525253003]}}, {"type": "Feature", "properties": {"norad_id": 30472, "name": "FENGYUN 1C DEB", "group": "fengyun-1c-debris", "lat": -26.87575421131815, "lon": -101.7857567704214, "alt_km": 729.6709196638412, "timestamp": "2025-12-07T16:44:04.187887+00:00", "meta": {"OBJECT_NAME": "FENGYUN 1C DEB", "OBJECT_ID": "1999-025AGK", "EPOCH": "2025-12-06T18:54:29.081376", "MEAN_MOTION": 14.53610401, "ECCENTRICITY": 0.00385995, "INCLINATION": 98.6523, "RA_OF_ASC_NODE": 81.7012, "ARG_OF_PERICENTER": 97.8145, "MEAN_ANOMALY": 32.5244, "EPHEMERIS_TYPE": 0, "CLASSIFICATION_TYPE": "U", "NORAD_CAT_ID": 30472, "ELEMENT_SET_NO": 999, "REV_AT_EPOCH": 97954, "BSTAR": 0.0044135238, "MEAN_MOTION_DOT": 0.00018631, "MEAN_MOTION_DDOT": 0}, "tle": {"line1": "1 30472U 99025AGK 25340.78783659  .00018631  00000+0  44135-2 0  9995", "line2": "2 30472  98.6523  81.7012 0038599  97.8145  32.5244 14.53610401979547"}}, "geometry": {"type": "Point", "coordinates": [-101.7857567704214, -26.87575421131815]}}, {"type": "Feature", "properties": {"norad_id": 30474, "name": "FENGYUN 1C DEB", "group": "fengyun-1c-debris", "lat": 12.047123570985885, "lon": 58.463983218173354, "alt_km": 751.1364669102059, "timestamp": "2025-12-07T16:44:04.187897+00:00", "meta": {"OBJECT_NAME": "FENGYUN 1C DEB", "OBJECT_ID": "1999-025AGM", "EPOCH": "2025-12-06T17:51:36.675936", "MEAN_MOTION": 14.37644315, "ECCENTRICITY": 0.00230584, "INCLINATION": 98.9295, "RA_OF_ASC_NODE": 59.3974, "ARG_OF_PERICENTER": 23.0502, "MEAN_ANOMALY": 99.2985, "EPHEMERIS_TYPE": 0, "CLASSIFICATION_TYPE": "U", "NORAD_CAT_ID": 30474, "ELEMENT_SET_NO": 999, "REV_AT_EPOCH": 97307, "BSTAR": 0.0038289049, "MEAN_MOTION_DOT": 0.00011505, "MEAN_MOTION_DDOT": 0}, "tle": {"line1": "1 30474U 99025AGM 25340.74417449  .00011505  00000+0  38289-2 0  9990", "line2": "2 30474  98.9295  59.3974 0023058  23.0502  99.2985 14.37644315973075"}}, "geometry": {"type": "Point", "coordinates": [58.463983218173354, 12.047123570985885]}}, {"type": "Feature", "properties": {"norad_id": 30475, "name": "FENGYUN 1C DEB", "group": "fengyun-1c-debris", "lat": 62.49209013026562, "lon": -139.42772004950947, "alt_km": 863.989174520977, "timestamp": "2025-12-07T16:44:04.187918+00:00", "meta": {"OBJECT_NAME": "FENGYUN 1C DEB", "OBJECT_ID": "1999-025AGN", "EPOCH": "2025-12-06T22:07:07.078080", "MEAN_MOTION": 14.15652464, "ECCENTRICITY": 0.00421674, "INCLINATION": 98.7876, "RA_OF_ASC_NODE": 22.5274, "ARG_OF_PERICENTER": 307.6786, "MEAN_ANOMALY": 177.5337, "EPHEMERIS_TYPE": 0, "CLASSIFICATION_TYPE": "U", "NORAD_CAT_ID": 30475, "ELEMENT_SET_NO": 999, "REV_AT_EPOCH": 96869, "BSTAR": 0.0012995982, "MEAN_MOTION_DOT": 2.525e-05, "MEAN_MOTION_DDOT": 0}, "tle": {"line1": "1 30475U 99025AGN 25340.92160970  .00002525  00000+0  12996-2 0  9994", "line2": "2 30475  98.7876  22.5274 0042167 307.6786 177.5337 14.15652464968694"}}, "geometry": {"type": "Point", "coordinates": [-139.42772004950947, 62.49209013026562]}}, {"type": "Feature", "properties": {"norad_id": 30476, "name": "FENGYUN 1C DEB", "group": "fengyun-1c-debris", "lat": 40.29264657729323, "lon": -153.43937098247616, "alt_km": 851.337317187299, "timestamp": "2025-12-07T16:44:04.187929+00:00", "meta": {"OBJECT_NAME": "FENGYUN 1C DEB", "OBJECT_ID": "1999-025AGP", "EPOCH": "2025-12-06T13:45:55.332576", "MEAN_MOTION": 14.20856113, "ECCENTRICITY": 0.00447692, "INCLINATION": 99.1245, "RA_OF_ASC_NODE": 17.5694, "ARG_OF_PERICENTER": 317.5203, "MEAN_ANOMALY": 196.8097, "EPHEMERIS_TYPE": 0, "CLASSIFICATION_TYPE": "U", "NORAD_CAT_ID": 30476, "ELEMENT_SET_NO": 999, "REV_AT_EPOCH": 96757, "BSTAR": 0.0024333512, "MEAN_MOTION_DOT": 5.27e-05, "MEAN_MOTION_DDOT": 0}, "tle": {"line1": "1 30476U 99025AGP 25340.57355709  .00005270  00000+0  24334-2 0  9991", "line2": "2 30476  99.1245  17.5694 0044769 317.5203 196.8097 14.20856113967570"}}, "geometry": {"type": "Point", "coordinates": [-153.43937098247616, 40.29264657729323]}}, {"type": "Feature", "properties": {"norad_id": 30477, "name": "FENGYUN 1C DEB", "group": "fengyun-1c-debris", "lat": 70.58765935879092, "lon": -86.68035043836099, "alt_km": 1489.0652794456555, "timestamp": "2025-12-07T16:44:04.187940+00:00", "meta": {"OBJECT_NAME": "FENGYUN 1C DEB", "OBJECT_ID": "1999-025AGQ", "EPOCH": "2025-12-05T11:40:50.912832", "MEAN_MOTION": 13.23779416, "ECCENTRICITY": 0.04317496, "INCLINATION": 99.4254, "RA_OF_ASC_NODE": 63.193, "ARG_OF_PERICENTER": 294.4293, "MEAN_ANOMALY": 82.9495, "EPHEMERIS_TYPE": 0, "CLASSIFICATION_TYPE": "U", "NORAD_CAT_ID": 30477, "ELEMENT_SET_NO": 999, "REV_AT_EPOCH": 90623, "BSTAR": 0.0040531099, "MEAN_MOTION_DOT": 2.793e-05, "MEAN_MOTION_DDOT": 0}, "tle": {"line1": "1 30477U 99025AGQ 25339.48670038  .00002793  00000+0  40531-2 0  9999", "line2": "2 30477  99.4254  63.1930 0431749 294.4293  82.9495 13.23779416906239"}}, "geometry": {"type": "Point", "coordinates": [-86.68035043836099, 70.58765935879092]}}, {"type": "Feature", "properties": {"norad_id": 30480, "name": "FENGYUN 1C DEB", "group": "fengyun-1c-debris", "lat": 6.210922197330171, "lon": -4.1431542443909635, "alt_km": 888.5974511530494, "timestamp": "2025-12-07T16:44:04.187950+00:00", "meta": {"OBJECT_NAME": "FENGYUN 1C DEB", "OBJECT_ID": "1999-025AGS", "EPOCH": "2025-12-06T19:43:36.992352", "MEAN_MOTION": 14.3358765, "ECCENTRICITY": 0.0166086, "INCLINATION": 98.2241, "RA_OF_ASC_NODE": 355.9263, "ARG_OF_PERICENTER": 163.2742, "MEAN_ANOMALY": 9.1389, "EPHEMERIS_TYPE": 0, "CLASSIFICATION_TYPE": "U", "NORAD_CAT_ID": 30480, "ELEMENT_SET_NO": 999, "REV_AT_EPOCH": 98583, "BSTAR": 0.00038896426, "MEAN_MOTION_DOT": 1.213e-05, "MEAN_MOTION_DDOT": 0}, "tle": {"line1": "1 30480U 99025AGS 25340.82195593  .00001213  00000+0  38896-3 0  9999", "line2": "2 30480  98.2241 355.9263 0166086 163.2742   9.1389 14.33587650985833"}}, "geometry": {"type": "Point", "coordinates": [-4.1431542443909635, 6.210922197330171]}}]}